{
  "norad_id": 52133,
  "name": "STARLINK-3707",
  "history": [
    {
      "epoch": "2026-03-28T21:03:25.928352Z",
      "apogee_km": 540.603963982041,
      "perigee_km": 538.8050484767609,
      "latitude_deg": -7.788926875465851e-06,
      "longitude_deg": -159.16646507872704,
      "height_km": 540.6249533181027,
      "semi_major_axis_km": 6917.841506229401,
      "eccentricity": 0.00013002,
      "inclination_deg": 53.2187,
      "raan_deg": 342.9831,
      "arg_perigee_deg": 91.5617,
      "mean_anomaly_deg": 268.5524,
      "mean_motion_rev_day": 15.08852721
    },
    {
      "epoch": "2026-03-29T01:49:35.133312Z",
      "apogee_km": 540.7065177362929,
      "perigee_km": 538.6948105435613,
      "latitude_deg": -3.910941149560092e-05,
      "longitude_deg": 128.2080925727495,
      "height_km": 540.6573919357082,
      "semi_major_axis_km": 6917.837664139926,
      "eccentricity": 0.0001454,
      "inclination_deg": 53.2191,
      "raan_deg": 342.0919,
      "arg_perigee_deg": 93.4744,
      "mean_anomaly_deg": 266.6414,
      "mean_motion_rev_day": 15.08853978
    },
    {
      "epoch": "2026-03-30T01:40:22.961280Z",
      "apogee_km": 540.6986131898566,
      "perigee_km": 538.7934282059568,
      "latitude_deg": 4.99082735737607e-06,
      "longitude_deg": 125.06839687238907,
      "height_km": 540.6488251575021,
      "semi_major_axis_km": 6917.883020697906,
      "eccentricity": 0.0001377,
      "inclination_deg": 53.2187,
      "raan_deg": 337.6308,
      "arg_perigee_deg": 90.4201,
      "mean_anomaly_deg": 269.6949,
      "mean_motion_rev_day": 15.08839139
    }
  ]
}